[{"OBJECT_NAME":"STARLINK-2280","OBJECT_ID":"2021-021B","EPOCH":"2026-03-09T17:07:20.456544","MEAN_MOTION":15.2934668,"ECCENTRICITY":9.009e-5,"INCLINATION":53.1606,"RA_OF_ASC_NODE":257.8343,"ARG_OF_PERICENTER":86.4428,"MEAN_ANOMALY":273.6676,"EPHEMERIS_TYPE":0,"CLASSIFICATION_TYPE":"U","NORAD_CAT_ID":47861,"ELEMENT_SET_NO":999,"REV_AT_EPOCH":27640,"BSTAR":-4.2507093e-5,"MEAN_MOTION_DOT":-1.582e-5,"MEAN_MOTION_DDOT":0},{"OBJECT_NAME":"UTMN 2 (RS27S)","OBJECT_ID":"2023-091AP","EPOCH":"2026-03-09T23:09:07.917408","MEAN_MOTION":15.29495965,"ECCENTRICITY":0.00097379,"INCLINATION":97.5194,"RA_OF_ASC_NODE":134.949,"ARG_OF_PERICENTER":76.0788,"MEAN_ANOMALY":284.1534,"EPHEMERIS_TYPE":0,"CLASSIFICATION_TYPE":"U","NORAD_CAT_ID":57203,"ELEMENT_SET_NO":999,"REV_AT_EPOCH":14936,"BSTAR":0.00056135701,"MEAN_MOTION_DOT":0.00016013,"MEAN_MOTION_DDOT":0}]
